#cP2017  6 21  0  0  0.00000000      96 ORBIT IGS14 HLM  IGS
## 1954 259200.00000000   900.00000000 57925 0.0000000000000
+   32   G01G02G03G04G05G06G07G08G09G10G11G12G13G14G15G16G17
+        G18G19G20G21G22G23G24G25G26G27G28G29G30G31G32  0  0
+          0  0  0  0  0  0  0  0  0  0  0  0  0  0  0  0  0
+          0  0  0  0  0  0  0  0  0  0  0  0  0  0  0  0  0
+          0  0  0  0  0  0  0  0  0  0  0  0  0  0  0  0  0
++         3  2  2  0  2  2  2  2  2  2  2  2  3  3  3  2  2
++         2  2  2  2  2  2  2  2  2  2  2  2  2  2  2  0  0
++         0  0  0  0  0  0  0  0  0  0  0  0  0  0  0  0  0
++         0  0  0  0  0  0  0  0  0  0  0  0  0  0  0  0  0
++         0  0  0  0  0  0  0  0  0  0  0  0  0  0  0  0  0
%c G  cc GPS ccc cccc cccc cccc cccc ccccc ccccc ccccc ccccc
%c cc cc ccc ccc cccc cccc cccc cccc ccccc ccccc ccccc ccccc
%f  1.2500000  1.025000000  0.00000000000  0.000000000000000
%f  0.0000000  0.000000000  0.00000000000  0.000000000000000
%i    0    0    0    0      0      0      0      0         0
%i    0    0    0    0      0      0      0      0         0
/* RAPID ORBIT COMBINATION FROM WEIGHTED AVERAGE OF:        
/* cod emr esa gfz jpl ngs sio usn whu                      
/* REFERENCED TO IGS TIME (IGST) AND TO WEIGHTED MEAN POLE: 
/* PCV:IGS14_1930 OL/AL:FES2004  NONE     Y  ORB:CMB CLK:CMB
*  2017  6 21 12  0  0.00000000
PG01 -17783.453595 -13620.917092 -14600.606525     56.106860  7  9  8 125       
PG02  -3430.592035  15409.720520  21856.844227    393.775480  3  6  8  97       
PG03 -13754.139719 -21113.161731   8453.235710    -93.256258  8  6  6  96       
PG04   9048.221351 -12299.959470  22001.859204 999999.999999
PG05    996.457634  24245.009354  10471.133525    -40.533279  6  6  5  83       
PG06 -19629.594992   7739.542254  16163.538161    367.312033  8  5  6 122       
PG07 -25857.641139  -6802.497372   2057.885595    337.223126  7        80       
PG08    297.708301 -19562.782290 -17867.162407    -63.881944  5  5  8  59       
PG09 -17657.585079   -804.770400  19806.839185    389.432978  7  6  4 112       
PG10  13702.275831  -6791.152247 -21679.376319    -18.079818  6  6  6  99       
PG11 -12369.767700 -13385.721759 -19874.779647   -696.888011  7  6  6 102       
PG12   9647.049866  24564.249259   3684.703315    380.850572  9  5  7  92       
PG13  -8375.746366  20980.375214 -14118.243559    -85.769402  8  2     83       
PG14  18845.575398 -18572.832936   -356.294215    -75.112154  9  7  8  87       
PG15   5643.053966  17065.071782 -19609.662262   -352.088801  6  8  7  92       
PG16   1430.584504 -23641.965388  11465.226249     35.128387  7  8  5  96       
PG17 -20874.195575  13192.801128  -9212.640161   -173.558793  7  5  5 104       
PG18  17268.597371   3943.679414 -19258.568289    620.867521  7  8  4  95       
PG19 -20071.037685  17534.947056  -1996.474938   -498.843984  5  6    102       
PG20  13246.678363  22840.204664  -3070.442211    476.928276  9  5  8 105       
PG21  26364.748164   2333.943286  -2009.509556   -499.495895  8  9  8 118       
PG22  -9796.172314 -24651.890852   -306.345089    -29.702594  7  5  6 118       
PG23 -10950.101267 -11301.170414  21623.957239   -213.913796  8  7  6 111       
PG24  15548.852444  14281.145477 -16346.666005    -36.487933  7  3  7  91       
PG25  15936.811580  15280.819065  14763.352002   -408.572230  6  8  4 112       
PG26   7599.175682 -17258.970064  18663.697228   -487.476953     6  5  81       
PG27  10663.680348 -22368.176899  -9309.494279    279.777240  5  4  6 119       
PG28 -14238.991860   2086.995052 -21697.976762    622.758338  8  1  3 101       
PG29  15461.815171   4304.176871  21145.290351    592.968668 10  3  8 134       
PG30 -24543.537713   1497.147182 -10222.842503    153.184652  6  6  7  80       
PG31  18293.167909  -8420.245699  17584.358567    193.289610  7  6  4  78       
PG32  20236.423232 -15040.685795  -8242.412419   -445.477912  7  4  5  89       
*  2017  6 21 12 15  0.00000000
PG01 -16027.066298 -13493.160281 -16605.436738     56.107158  7  9  8 116       
PG02  -5796.017000  15124.223124  21518.906864    393.768358  4  6  7  88       
PG03 -13824.405293 -21958.482278   5759.215463    -93.253923  8  6  6  92       
PG04  11332.738211 -11537.487372  21282.848540 999999.999999
PG05    236.342713  23091.704826  12853.223137    -40.531847  6  5  4  90       
PG06 -21312.133339   7319.828342  14094.648145    367.316624  7  5  6 118       
PG07 -25456.285558  -6948.988648   4855.401531    337.219182  7  1  1  82       
PG08   1622.913326 -21004.614823 -16064.992798    -63.883406  5  5  8  70       
PG09 -16297.978380  -2697.366041  20778.820696    389.440293  6  6  4  96       
PG10  14622.134596  -4478.935216 -21689.749556    -18.068804  6  6  5  96       
PG11 -10234.549039 -14044.496926 -20647.924787   -696.890476  6  5  6 106       
PG12   9579.782026  24873.058329    800.928028    380.849789  8  5  6  85       
PG13  -9542.321496  21882.477360 -11804.000486    -85.769594  9  1  1  92       
PG14  18879.429852 -18219.425794  -3214.943333    -75.113513  9  7  8 125       
PG15   4279.441213  18750.058854 -18330.739841   -352.089301  6  7  6 103       
PG16   2025.318214 -22277.888473  13867.062721     35.128911  5  8  5  75       
PG17 -20193.683713  12125.882341 -11760.484931   -173.557257  8  4  4  82       
PG18  18037.072160   6065.543137 -18017.871695    620.868671  8  8  5  99       
PG19 -19954.210962  17152.083903  -4835.028934   -498.842611  6  6     90       
PG20  13016.046984  23157.686330   -293.650017    476.929357  8  5  7  97       
PG21  26482.368585   2656.865305    798.416458   -499.493625  9  9  8 101       
PG22  -9372.423148 -24598.647148  -3079.441541    -29.713786  6  5  4 109       
PG23  -9418.986283 -13163.936394  21245.033564   -213.914406  8  6  5 105       
PG24  13594.543247  14217.988546 -18042.187753    -36.488575  7  2  6  71       
PG25  16362.165820  16803.945746  12512.246693   -408.578124  6  8  5  93       
PG26   8547.966604 -15254.467405  19961.580472   -487.471421     6  5  63       
PG27  11395.172959 -22946.907915  -6610.170182    279.783484  4  3  5 107       
PG28 -14957.608000   -403.092050 -21318.404063    622.761144  9     3  98       
PG29  13855.575507   6160.005022  21791.919768    592.965489 10  4  8 124       
PG30 -25488.945507   1035.408485  -7654.810056    153.183600  7  5  6  80       
PG31  20118.148802  -7951.690621  15737.745978    193.287254  8  6  4  87       
PG32  19748.897781 -14031.225931 -10804.950490   -445.486118  7  5  5  98       
*  2017  6 21 12 30  0.00000000
PG01 -14056.946887 -13440.361135 -18330.006888     56.107442  8  9  7 119       
PG02  -8119.995107  14962.098520  20825.834327    393.760998  4  6  7 100       
PG03 -13808.697303 -22517.095728   2966.282020    -93.251552  8  5  6  86       
PG04  13564.685315 -10926.507666  20204.564835 999999.999999
PG05   -691.212544  21744.822879  15010.807074    -40.530549  7  5  3 100       
PG06 -22767.734322   7011.999017  11783.708030    367.321180  6  5  6 108       
PG07 -24757.210362  -7081.531296   7571.852103    337.215703  7  2  1 111       
PG08   2744.858457 -22333.006645 -13984.278508    -63.885171  5  5  7  65       
PG09 -14985.260277  -4730.649589  21392.663598    389.447629  6  6  3  94       
PG10  15651.724097  -2236.756649 -21326.018613    -18.057800  5  6  5  98       
PG11  -8069.231663 -14815.673773 -21082.350363   -696.892874  6  5  6 103       
PG12   9411.387924  24880.808699  -2096.486802    380.849134  7  4  6  85       
PG13 -10477.570855  22642.806990  -9288.236147    -85.770479 10  3  5  61       
PG14  18727.198725 -17618.130160  -6017.430553    -75.114733  9  7  8 125       
PG15   3077.260219  20361.584198 -16736.696236   -352.089959  7  5  5  98       
PG16   2785.989228 -20704.251620  16023.661601     35.129356  2  7  5  66       
PG17 -19400.074587  10799.745467 -14100.505831   -173.555558  9  3  1  89       
PG18  18826.406826   8002.377597 -16454.405105    620.870163  8  7  6  93       
PG19 -19653.048914  16526.293203  -7592.173070   -498.841452  7  6     98       
PG20  12641.958407  23215.744475   2488.179439    476.930641  8  5  7  94       
PG21  26301.464600   2949.985863   3592.779798   -499.491548  9  8  7  93       
PG22  -8802.663378 -24289.881442  -5799.171100    -29.724727  4  5  3 100       
PG23  -8015.428459 -15053.150639  20506.604397   -213.915044  8  6  5 101       
PG24  11465.451068  14243.018310 -19431.806651    -36.489380  7     5  75       
PG25  16759.115914  18056.522547  10046.336573   -408.583988  6  8  6  87       
PG26   9653.509166 -13187.117997  20915.094752   -487.465870     6  5  85       
PG27  11915.392301 -23306.674183  -3795.783783    279.789704  4  4  6  96       
PG28 -15787.610206  -2785.783153 -20549.902071    622.763740  9  3  4  90       
PG29  12322.188744   8142.415973  22063.083089    592.962033  9  5  8 120       
PG30 -26162.969022    666.864625  -4956.112460    153.182584  6  5  6  72       
PG31  21743.676368  -7610.023289  13626.046863    193.285477  8  6  4  90       
PG32  19154.075317 -12768.288261 -13180.813744   -445.494275  6  5  4 104       
EOF
